{
  "type": "FeatureCollection",
  "features": [
    {
      "type": "Feature",
      "properties": {
        "norad_id": 30326,
        "name": "FENGYUN 1C DEB",
        "group": "fengyun-1c-debris",
        "lat": -66.71387939530686,
        "lon": 36.15356839967809,
        "alt_km": 1023.3921514304711,
        "timestamp": "2025-12-15T19:00:45.631840+00:00",
        "meta_object_name": "FENGYUN 1C DEB",
        "meta_object_id": "1999-025AAM",
        "meta_epoch": "2025-12-14T15:49:03.410400",
        "meta_mean_motion": 13.8547615,
        "meta_eccentricity": 0.01423116,
        "meta_inclination": 98.6541,
        "meta_ra_of_asc_node": 235.8307,
        "meta_arg_of_pericenter": 25.3606,
        "meta_mean_anomaly": 335.4448,
        "meta_ephemeris_type": 0,
        "meta_classification_type": "U",
        "meta_norad_cat_id": 30326,
        "meta_element_set_no": 999,
        "meta_rev_at_epoch": 95482,
        "meta_bstar": 0.00023717395,
        "meta_mean_motion_dot": 2.53e-06,
        "meta_mean_motion_ddot": 0,
        "tle_line1": "1 30326U 99025AAM 25348.65906725  .00000253  00000+0  23717-3 0  9993",
        "tle_line2": "2 30326  98.6541 235.8307 0142311  25.3606 335.4448 13.85476150954820"
      },
      "geometry": {
        "type": "Point",
        "coordinates": [
          36.15356839967809,
          -66.71387939530686
        ]
      }
    },
    {
      "type": "Feature",
      "properties": {
        "norad_id": 30327,
        "name": "FENGYUN 1C DEB",
        "group": "fengyun-1c-debris",
        "lat": 61.46584223862337,
        "lon": 79.80764345837957,
        "alt_km": 745.1606888101096,
        "timestamp": "2025-12-15T19:00:45.631850+00:00",
        "meta_object_name": "FENGYUN 1C DEB",
        "meta_object_id": "1999-025AAN",
        "meta_epoch": "2025-12-13T15:48:01.550592",
        "meta_mean_motion": 14.17992989,
        "meta_eccentricity": 0.01170502,
        "meta_inclination": 98.4436,
        "meta_ra_of_asc_node": 241.9237,
        "meta_arg_of_pericenter": 140.1805,
        "meta_mean_anomaly": 250.821,
        "meta_ephemeris_type": 0,
        "meta_classification_type": "U",
        "meta_norad_cat_id": 30327,
        "meta_element_set_no": 999,
        "meta_rev_at_epoch": 96456,
        "meta_bstar": 0.0019863903,
        "meta_mean_motion_dot": 4.314e-05,
        "meta_mean_motion_ddot": 0,
        "tle_line1": "1 30327U 99025AAN 25347.65835128  .00004314  00000+0  19864-2 0  9990",
        "tle_line2": "2 30327  98.4436 241.9237 0117050 140.1805 250.8210 14.17992989964569"
      },
      "geometry": {
        "type": "Point",
        "coordinates": [
          79.80764345837957,
          61.46584223862337
        ]
      }
    },
    {
      "type": "Feature",
      "properties": {
        "norad_id": 30328,
        "name": "FENGYUN 1C DEB",
        "group": "fengyun-1c-debris",
        "lat": -32.24095085225444,
        "lon": 174.28604431775247,
        "alt_km": 855.3714218555979,
        "timestamp": "2025-12-15T19:00:45.631861+00:00",
        "meta_object_name": "FENGYUN 1C DEB",
        "meta_object_id": "1999-025AAP",
        "meta_epoch": "2025-12-14T19:03:39.301632",
        "meta_mean_motion": 14.12474789,
        "meta_eccentricity": 0.00058576,
        "meta_inclination": 98.6864,
        "meta_ra_of_asc_node": 358.8519,
        "meta_arg_of_pericenter": 147.1762,
        "meta_mean_anomaly": 33.471,
        "meta_ephemeris_type": 0,
        "meta_classification_type": "U",
        "meta_norad_cat_id": 30328,
        "meta_element_set_no": 999,
        "meta_rev_at_epoch": 97293,
        "meta_bstar": 0.00016542601,
        "meta_mean_motion_dot": 2.63e-06,
        "meta_mean_motion_ddot": 0,
        "tle_line1": "1 30328U 99025AAP 25348.79420488  .00000263  00000+0  16543-3 0  9997",
        "tle_line2": "2 30328  98.6864 358.8519 0005857 147.1762  33.4710 14.12474789972936"
      },
      "geometry": {
        "type": "Point",
        "coordinates": [
          174.28604431775247,
          -32.24095085225444
        ]
      }
    },
    {
      "type": "Feature",
      "properties": {
        "norad_id": 30329,
        "name": "FENGYUN 1C DEB",
        "group": "fengyun-1c-debris",
        "lat": -17.887793131939183,
        "lon": -87.84548968049637,
        "alt_km": 871.0334611034714,
        "timestamp": "2025-12-15T19:00:45.631873+00:00",
        "meta_object_name": "FENGYUN 1C DEB",
        "meta_object_id": "1999-025AAQ",
        "meta_epoch": "2025-12-14T17:24:09.927360",
        "meta_mean_motion": 13.86743659,
        "meta_eccentricity": 0.01423023,
        "meta_inclination": 99.2619,
        "meta_ra_of_asc_node": 268.0791,
        "meta_arg_of_pericenter": 30.2301,
        "meta_mean_anomaly": 28.603,
        "meta_ephemeris_type": 0,
        "meta_classification_type": "U",
        "meta_norad_cat_id": 30329,
        "meta_element_set_no": 999,
        "meta_rev_at_epoch": 95438,
        "meta_bstar": 0.00051780416,
        "meta_mean_motion_dot": 6.09e-06,
        "meta_mean_motion_ddot": 0,
        "tle_line1": "1 30329U 99025AAQ 25348.72511490  .00000609  00000+0  51780-3 0  9991",
        "tle_line2": "2 30329  99.2619 268.0791 0142302  30.2301  28.6030 13.86743659954389"
      },
      "geometry": {
        "type": "Point",
        "coordinates": [
          -87.84548968049637,
          -17.887793131939183
        ]
      }
    },
    {
      "type": "Feature",
      "properties": {
        "norad_id": 30330,
        "name": "FENGYUN 1C DEB",
        "group": "fengyun-1c-debris",
        "lat": -31.840090300432497,
        "lon": -12.450549979600172,
        "alt_km": 1082.6160778358399,
        "timestamp": "2025-12-15T19:00:45.631884+00:00",
        "meta_object_name": "FENGYUN 1C DEB",
        "meta_object_id": "1999-025AAR",
        "meta_epoch": "2025-12-14T22:35:47.836896",
        "meta_mean_motion": 13.82066056,
        "meta_eccentricity": 0.01876109,
        "meta_inclination": 98.8861,
        "meta_ra_of_asc_node": 341.1721,
        "meta_arg_of_pericenter": 178.8424,
        "meta_mean_anomaly": 237.7753,
        "meta_ephemeris_type": 0,
        "meta_classification_type": "U",
        "meta_norad_cat_id": 30330,
        "meta_element_set_no": 999,
        "meta_rev_at_epoch": 94688,
        "meta_bstar": 0.0011638951,
        "meta_mean_motion_dot": 1.391e-05,
        "meta_mean_motion_ddot": 0,
        "tle_line1": "1 30330U 99025AAR 25348.94152589  .00001391  00000+0  11639-2 0  9994",
        "tle_line2": "2 30330  98.8861 341.1721 0187610 178.8424 237.7753 13.82066056946883"
      },
      "geometry": {
        "type": "Point",
        "coordinates": [
          -12.450549979600172,
          -31.840090300432497
        ]
      }
    },
    {
      "type": "Feature",
      "properties": {
        "norad_id": 30331,
        "name": "FENGYUN 1C DEB",
        "group": "fengyun-1c-debris",
        "lat": 9.348076402458695,
        "lon": 22.806158014981747,
        "alt_km": 833.8571162521312,
        "timestamp": "2025-12-15T19:00:45.631919+00:00",
        "meta_object_name": "FENGYUN 1C DEB",
        "meta_object_id": "1999-025AAS",
        "meta_epoch": "2025-12-14T16:03:59.576256",
        "meta_mean_motion": 13.97831779,
        "meta_eccentricity": 0.00962549,
        "meta_inclination": 98.9565,
        "meta_ra_of_asc_node": 23.1986,
        "meta_arg_of_pericenter": 2.6552,
        "meta_mean_anomaly": 119.9019,
        "meta_ephemeris_type": 0,
        "meta_classification_type": "U",
        "meta_norad_cat_id": 30331,
        "meta_element_set_no": 999,
        "meta_rev_at_epoch": 96146,
        "meta_bstar": 0.00043122265,
        "meta_mean_motion_dot": 5.91e-06,
        "meta_mean_motion_ddot": 0,
        "tle_line1": "1 30331U 99025AAS 25348.66943954  .00000591  00000+0  43122-3 0  9992",
        "tle_line2": "2 30331  98.9565  23.1986 0096254   2.6552 119.9019 13.97831779961460"
      },
      "geometry": {
        "type": "Point",
        "coordinates": [
          22.806158014981747,
          9.348076402458695
        ]
      }
    },
    {
      "type": "Feature",
      "properties": {
        "norad_id": 30332,
        "name": "FENGYUN 1C DEB",
        "group": "fengyun-1c-debris",
        "lat": 17.85942736120145,
        "lon": 144.54226797507852,
        "alt_km": 922.0428242939524,
        "timestamp": "2025-12-15T19:00:45.631930+00:00",
        "meta_object_name": "FENGYUN 1C DEB",
        "meta_object_id": "1999-025AAT",
        "meta_epoch": "2025-12-14T21:34:47.912160",
        "meta_mean_motion": 13.76711178,
        "meta_eccentricity": 0.01781167,
        "meta_inclination": 99.7153,
        "meta_ra_of_asc_node": 320.4663,
        "meta_arg_of_pericenter": 97.385,
        "meta_mean_anomaly": 318.8383,
        "meta_ephemeris_type": 0,
        "meta_classification_type": "U",
        "meta_norad_cat_id": 30332,
        "meta_element_set_no": 999,
        "meta_rev_at_epoch": 94745,
        "meta_bstar": 0.00042831678,
        "meta_mean_motion_dot": 4.28e-06,
        "meta_mean_motion_ddot": 0,
        "tle_line1": "1 30332U 99025AAT 25348.89916565  .00000428  00000+0  42832-3 0  9992",
        "tle_line2": "2 30332  99.7153 320.4663 0178116  97.3850 318.8383 13.76711178947452"
      },
      "geometry": {
        "type": "Point",
        "coordinates": [
          144.54226797507852,
          17.85942736120145
        ]
      }
    }
  ]
}